CCSDS_OMM_VERS = 2.0
CREATION_DATE  = 
ORIGINATOR     = 

OBJECT_NAME    = SL-16 R/B
OBJECT_ID      = 1998-043G
CENTER_NAME    = EARTH
REF_FRAME      = TEME
TIME_SYSTEM    = UTC
MEAN_ELEMENT_THEORY = SGP/SGP4

EPOCH          = 2025-12-28T14:02:59.194176
MEAN_MOTION    = 14.26029344
ECCENTRICITY   = .00091391
INCLINATION    = 98.8148
RA_OF_ASC_NODE = 310.4940
ARG_OF_PERICENTER = 215.8488
MEAN_ANOMALY   = 144.2079

EPHEMERIS_TYPE = 0
CLASSIFICATION_TYPE = U
NORAD_CAT_ID   = 25400
ELEMENT_SET_NO = 999
REV_AT_EPOCH   = 42885
BSTAR          = .62885538E-4
MEAN_MOTION_DOT = .105E-5
MEAN_MOTION_DDOT = 0

CCSDS_OMM_VERS = 2.0
CREATION_DATE  = 
ORIGINATOR     = 

OBJECT_NAME    = SL-16 R/B
OBJECT_ID      = 1998-045B
CENTER_NAME    = EARTH
REF_FRAME      = TEME
TIME_SYSTEM    = UTC
MEAN_ELEMENT_THEORY = SGP/SGP4

EPOCH          = 2025-12-28T07:17:58.897824
MEAN_MOTION    = 14.16180096
ECCENTRICITY   = .0005988
INCLINATION    = 71.0124
RA_OF_ASC_NODE = 331.6942
ARG_OF_PERICENTER = 150.7280
MEAN_ANOMALY   = 209.4180

EPHEMERIS_TYPE = 0
CLASSIFICATION_TYPE = U
NORAD_CAT_ID   = 25407
ELEMENT_SET_NO = 999
REV_AT_EPOCH   = 41699
BSTAR          = .13592E-3
MEAN_MOTION_DOT = .221E-5
MEAN_MOTION_DDOT = 0

CCSDS_OMM_VERS = 2.0
CREATION_DATE  = 
ORIGINATOR     = 

OBJECT_NAME    = ISS (ZARYA)
OBJECT_ID      = 1998-067A
CENTER_NAME    = EARTH
REF_FRAME      = TEME
TIME_SYSTEM    = UTC
MEAN_ELEMENT_THEORY = SGP/SGP4

EPOCH          = 2025-12-28T12:48:20.862720
MEAN_MOTION    = 15.49907133
ECCENTRICITY   = .00032501
INCLINATION    = 51.6321
RA_OF_ASC_NODE = 64.2558
ARG_OF_PERICENTER = 314.4858
MEAN_ANOMALY   = 45.5864

EPHEMERIS_TYPE = 0
CLASSIFICATION_TYPE = U
NORAD_CAT_ID   = 25544
ELEMENT_SET_NO = 999
REV_AT_EPOCH   = 54530
BSTAR          = .27889005E-3
MEAN_MOTION_DOT = .15441E-3
MEAN_MOTION_DDOT = 0

CCSDS_OMM_VERS = 2.0
CREATION_DATE  = 
ORIGINATOR     = 

OBJECT_NAME    = CZ-4B R/B
OBJECT_ID      = 1999-025C
CENTER_NAME    = EARTH
REF_FRAME      = TEME
TIME_SYSTEM    = UTC
MEAN_ELEMENT_THEORY = SGP/SGP4

EPOCH          = 2025-12-28T03:05:29.583168
MEAN_MOTION    = 14.18247492
ECCENTRICITY   = .0036994
INCLINATION    = 98.6748
RA_OF_ASC_NODE = 43.0631
ARG_OF_PERICENTER = 189.1931
MEAN_ANOMALY   = 231.2311

EPHEMERIS_TYPE = 0
CLASSIFICATION_TYPE = U
NORAD_CAT_ID   = 25732
ELEMENT_SET_NO = 999
REV_AT_EPOCH   = 37802
BSTAR          = .58225E-4
MEAN_MOTION_DOT = .77E-6
MEAN_MOTION_DDOT = 0

CCSDS_OMM_VERS = 2.0
CREATION_DATE  = 
ORIGINATOR     = 

OBJECT_NAME    = OKEAN-O
OBJECT_ID      = 1999-039A
CENTER_NAME    = EARTH
REF_FRAME      = TEME
TIME_SYSTEM    = UTC
MEAN_ELEMENT_THEORY = SGP/SGP4

EPOCH          = 2025-12-28T14:35:42.636768
MEAN_MOTION    = 14.80189112
ECCENTRICITY   = .0001222
INCLINATION    = 97.9581
RA_OF_ASC_NODE = 58.1710
ARG_OF_PERICENTER = 115.0979
MEAN_ANOMALY   = 245.0360

EPHEMERIS_TYPE = 0
CLASSIFICATION_TYPE = U
NORAD_CAT_ID   = 25860
ELEMENT_SET_NO = 999
REV_AT_EPOCH   = 42387
BSTAR          = .1279053E-3
MEAN_MOTION_DOT = .92E-5
MEAN_MOTION_DDOT = 0

CCSDS_OMM_VERS = 2.0
CREATION_DATE  = 
ORIGINATOR     = 

OBJECT_NAME    = SL-16 R/B
OBJECT_ID      = 1999-039B
CENTER_NAME    = EARTH
REF_FRAME      = TEME
TIME_SYSTEM    = UTC
MEAN_ELEMENT_THEORY = SGP/SGP4

EPOCH          = 2025-12-28T15:43:58.146240
MEAN_MOTION    = 14.81610266
ECCENTRICITY   = .00159605
INCLINATION    = 98.0106
RA_OF_ASC_NODE = 56.8062
ARG_OF_PERICENTER = 125.1789
MEAN_ANOMALY   = 235.0921

EPHEMERIS_TYPE = 0
CLASSIFICATION_TYPE = U
NORAD_CAT_ID   = 25861
ELEMENT_SET_NO = 999
REV_AT_EPOCH   = 42634
BSTAR          = .10781125E-3
MEAN_MOTION_DOT = .795E-5
MEAN_MOTION_DDOT = 0

CCSDS_OMM_VERS = 2.0
CREATION_DATE  = 
ORIGINATOR     = 

OBJECT_NAME    = DELTA 2 R/B
OBJECT_ID      = 1999-041E
CENTER_NAME    = EARTH
REF_FRAME      = TEME
TIME_SYSTEM    = UTC
MEAN_ELEMENT_THEORY = SGP/SGP4

EPOCH          = 2025-12-28T13:47:26.510496
MEAN_MOTION    = 14.11447713
ECCENTRICITY   = .05043811
INCLINATION    = 51.7596
RA_OF_ASC_NODE = 225.2334
ARG_OF_PERICENTER = 138.4328
MEAN_ANOMALY   = 225.6119

EPHEMERIS_TYPE = 0
CLASSIFICATION_TYPE = U
NORAD_CAT_ID   = 25876
ELEMENT_SET_NO = 999
REV_AT_EPOCH   = 35298
BSTAR          = .34161761E-3
MEAN_MOTION_DOT = .1882E-4
MEAN_MOTION_DDOT = 0

CCSDS_OMM_VERS = 2.0
CREATION_DATE  = 
ORIGINATOR     = 

OBJECT_NAME    = HELIOS 1B
OBJECT_ID      = 1999-064A
CENTER_NAME    = EARTH
REF_FRAME      = TEME
TIME_SYSTEM    = UTC
MEAN_ELEMENT_THEORY = SGP/SGP4

EPOCH          = 2025-12-28T14:43:17.441184
MEAN_MOTION    = 14.87349163
ECCENTRICITY   = .00007607
INCLINATION    = 98.1749
RA_OF_ASC_NODE = 257.7503
ARG_OF_PERICENTER = 31.8724
MEAN_ANOMALY   = 328.2537

EPHEMERIS_TYPE = 0
CLASSIFICATION_TYPE = U
NORAD_CAT_ID   = 25977
ELEMENT_SET_NO = 999
REV_AT_EPOCH   = 67469
BSTAR          = .29337729E-3
MEAN_MOTION_DOT = .2592E-4
MEAN_MOTION_DDOT = 0

CCSDS_OMM_VERS = 2.0
CREATION_DATE  = 
ORIGINATOR     = 

OBJECT_NAME    = TERRA
OBJECT_ID      = 1999-068A
CENTER_NAME    = EARTH
REF_FRAME      = TEME
TIME_SYSTEM    = UTC
MEAN_ELEMENT_THEORY = SGP/SGP4

EPOCH          = 2025-12-28T15:13:36.912000
MEAN_MOTION    = 14.60920248
ECCENTRICITY   = .00033147
INCLINATION    = 97.9728
RA_OF_ASC_NODE = 53.7338
ARG_OF_PERICENTER = 62.4831
MEAN_ANOMALY   = 52.9312

EPHEMERIS_TYPE = 0
CLASSIFICATION_TYPE = U
NORAD_CAT_ID   = 25994
ELEMENT_SET_NO = 999
REV_AT_EPOCH   = 38470
BSTAR          = .13111992E-3
MEAN_MOTION_DOT = .597E-5
MEAN_MOTION_DDOT = 0

CCSDS_OMM_VERS = 2.0
CREATION_DATE  = 
ORIGINATOR     = 

OBJECT_NAME    = SL-16 R/B
OBJECT_ID      = 2000-006B
CENTER_NAME    = EARTH
REF_FRAME      = TEME
TIME_SYSTEM    = UTC
MEAN_ELEMENT_THEORY = SGP/SGP4

EPOCH          = 2025-12-28T15:42:08.989344
MEAN_MOTION    = 14.15810835
ECCENTRICITY   = .00186222
INCLINATION    = 71.0010
RA_OF_ASC_NODE = 247.1965
ARG_OF_PERICENTER = 287.1756
MEAN_ANOMALY   = 72.7328

EPHEMERIS_TYPE = 0
CLASSIFICATION_TYPE = U
NORAD_CAT_ID   = 26070
ELEMENT_SET_NO = 999
REV_AT_EPOCH   = 33850
BSTAR          = .17382936E-3
MEAN_MOTION_DOT = .294E-5
MEAN_MOTION_DDOT = 0

CCSDS_OMM_VERS = 2.0
CREATION_DATE  = 
ORIGINATOR     = 

OBJECT_NAME    = TITAN 4B R/B
OBJECT_ID      = 2000-047B
CENTER_NAME    = EARTH
REF_FRAME      = TEME
TIME_SYSTEM    = UTC
MEAN_ELEMENT_THEORY = SGP/SGP4

EPOCH          = 2025-12-28T14:04:17.875200
MEAN_MOTION    = 15.08898284
ECCENTRICITY   = .00378667
INCLINATION    = 67.9888
RA_OF_ASC_NODE = 240.3471
ARG_OF_PERICENTER = 125.0709
MEAN_ANOMALY   = 235.4002

EPHEMERIS_TYPE = 0
CLASSIFICATION_TYPE = U
NORAD_CAT_ID   = 26474
ELEMENT_SET_NO = 999
REV_AT_EPOCH   = 38218
BSTAR          = .27277693E-3
MEAN_MOTION_DOT = .4249E-4
MEAN_MOTION_DDOT = 0

CCSDS_OMM_VERS = 2.0
CREATION_DATE  = 
ORIGINATOR     = 

OBJECT_NAME    = ENVISAT
OBJECT_ID      = 2002-009A
CENTER_NAME    = EARTH
REF_FRAME      = TEME
TIME_SYSTEM    = UTC
MEAN_ELEMENT_THEORY = SGP/SGP4

EPOCH          = 2025-12-18T22:44:27.718656
MEAN_MOTION    = 14.39001403
ECCENTRICITY   = .0001126
INCLINATION    = 98.3609
RA_OF_ASC_NODE = 303.5309
ARG_OF_PERICENTER = 84.8976
MEAN_ANOMALY   = 298.2993

EPHEMERIS_TYPE = 0
CLASSIFICATION_TYPE = U
NORAD_CAT_ID   = 27386
ELEMENT_SET_NO = 999
REV_AT_EPOCH   = 24756
BSTAR          = .39999337E-4
MEAN_MOTION_DOT = .81E-6
MEAN_MOTION_DDOT = 0

