SL-16 R/B               
1 25400U 98043G   25362.58540734  .00000105  00000+0  62886-4 0  9998
2 25400  98.8148 310.4940 0009139 215.8488 144.2079 14.26029344428859
SL-16 R/B               
1 25407U 98045B   25362.30415391  .00000221  00000+0  13592-3 0  9995
2 25407  71.0124 331.6942 0005988 150.7280 209.4180 14.16180096416995
ISS (ZARYA)             
1 25544U 98067A   25362.53357480  .00015441  00000+0  27889-3 0  9994
2 25544  51.6321  64.2558 0003250 314.4858  45.5864 15.49907133545304
CZ-4B R/B               
1 25732U 99025C   25362.12881462  .00000077  00000+0  58225-4 0  9993
2 25732  98.6748  43.0631 0036994 189.1931 231.2311 14.18247492378028
OKEAN-O                 
1 25860U 99039A   25362.60813237  .00000920  00000+0  12791-3 0  9992
2 25860  97.9581  58.1710 0001222 115.0979 245.0360 14.80189112423872
SL-16 R/B               
1 25861U 99039B   25362.65553410  .00000795  00000+0  10781-3 0  9999
2 25861  98.0106  56.8062 0015960 125.1789 235.0921 14.81610266426345
DELTA 2 R/B             
1 25876U 99041E   25362.57461239  .00001882  00000+0  34162-3 0  9993
2 25876  51.7596 225.2334 0504381 138.4328 225.6119 14.11447713352980
HELIOS 1B               
1 25977U 99064A   25362.61339631  .00002592  00000+0  29338-3 0  9993
2 25977  98.1749 257.7503 0000760  31.8724 328.2537 14.87349163674695
TERRA                   
1 25994U 99068A   25362.63445500  .00000597  00000+0  13112-3 0  9997
2 25994  97.9728  53.7338 0003314  62.4831  52.9312 14.60920248384707
SL-16 R/B               
1 26070U 00006B   25362.65427071  .00000294  00000+0  17383-3 0  9990
2 26070  71.0010 247.1965 0018622 287.1756  72.7328 14.15810835338509
TITAN 4B R/B            
1 26474U 00047B   25362.58631800  .00004249  00000+0  27278-3 0  9990
2 26474  67.9888 240.3471 0037866 125.0709 235.4002 15.08898284382187
ENVISAT                 
1 27386U 02009A   25352.94754304  .00000081  00000+0  39999-4 0  9991
2 27386  98.3609 303.5309 0001126  84.8976 298.2993 14.39001403247569
